[{"OBJECT_NAME":"IRIDIUM 33 DEB","OBJECT_ID":"1997-051MQ","EPOCH":"2026-04-04T22:13:10.478208","MEAN_MOTION":14.79029026,"ECCENTRICITY":0.00172325,"INCLINATION":86.306,"RA_OF_ASC_NODE":262.1183,"ARG_OF_PERICENTER":153.0968,"MEAN_ANOMALY":359.2423,"EPHEMERIS_TYPE":0,"CLASSIFICATION_TYPE":"U","NORAD_CAT_ID":34870,"ELEMENT_SET_NO":999,"REV_AT_EPOCH":90582,"BSTAR":0.0018065864,"MEAN_MOTION_DOT":0.00013421,"MEAN_MOTION_DDOT":0},{"OBJECT_NAME":"IRIDIUM 33 DEB","OBJECT_ID":"1997-051MY","EPOCH":"2026-04-05T05:58:01.536096","MEAN_MOTION":14.67555031,"ECCENTRICITY":0.00253729,"INCLINATION":86.3236,"RA_OF_ASC_NODE":275.718,"ARG_OF_PERICENTER":184.6877,"MEAN_ANOMALY":352.2509,"EPHEMERIS_TYPE":0,"CLASSIFICATION_TYPE":"U","NORAD_CAT_ID":34896,"ELEMENT_SET_NO":999,"REV_AT_EPOCH":89283,"BSTAR":0.001198465,"MEAN_MOTION_DOT":6.854e-5,"MEAN_MOTION_DDOT":0},{"OBJECT_NAME":"IRIDIUM 33 DEB","OBJECT_ID":"1997-051NF","EPOCH":"2026-04-03T14:42:33.792768","MEAN_MOTION":14.60196405,"ECCENTRICITY":0.0071394,"INCLINATION":86.1325,"RA_OF_ASC_NODE":316.162,"ARG_OF_PERICENTER":277.9855,"MEAN_ANOMALY":109.4186,"EPHEMERIS_TYPE":0,"CLASSIFICATION_TYPE":"U","NORAD_CAT_ID":34926,"ELEMENT_SET_NO":999,"REV_AT_EPOCH":88086,"BSTAR":0.0057011,"MEAN_MOTION_DOT":0.00028577,"MEAN_MOTION_DDOT":0},{"OBJECT_NAME":"IRIDIUM 33 DEB","OBJECT_ID":"1997-051NR","EPOCH":"2026-04-05T00:48:09.069120","MEAN_MOTION":14.42598365,"ECCENTRICITY":0.00196899,"INCLINATION":86.3753,"RA_OF_ASC_NODE":8.5315,"ARG_OF_PERICENTER":205.794,"MEAN_ANOMALY":170.8106,"EPHEMERIS_TYPE":0,"CLASSIFICATION_TYPE":"U","NORAD_CAT_ID":34985,"ELEMENT_SET_NO":999,"REV_AT_EPOCH":88808,"BSTAR":0.00081191047,"MEAN_MOTION_DOT":2.72e-5,"MEAN_MOTION_DDOT":0},{"OBJECT_NAME":"IRIDIUM 33 DEB","OBJECT_ID":"1997-051NX","EPOCH":"2026-04-04T21:06:33.310944","MEAN_MOTION":14.4822429,"ECCENTRICITY":0.00103742,"INCLINATION":86.3227,"RA_OF_ASC_NODE":319.5481,"ARG_OF_PERICENTER":74.4004,"MEAN_ANOMALY":285.8343,"EPHEMERIS_TYPE":0,"CLASSIFICATION_TYPE":"U","NORAD_CAT_ID":35051,"ELEMENT_SET_NO":999,"REV_AT_EPOCH":88633,"BSTAR":0.0007306652,"MEAN_MOTION_DOT":2.746e-5,"MEAN_MOTION_DDOT":0},{"OBJECT_NAME":"IRIDIUM 33 DEB","OBJECT_ID":"1997-051NY","EPOCH":"2026-04-05T02:21:46.274400","MEAN_MOTION":14.38660007,"ECCENTRICITY":0.00135863,"INCLINATION":86.3323,"RA_OF_ASC_NODE":331.9016,"ARG_OF_PERICENTER":73.6714,"MEAN_ANOMALY":286.5977,"EPHEMERIS_TYPE":0,"CLASSIFICATION_TYPE":"U","NORAD_CAT_ID":35052,"ELEMENT_SET_NO":999,"REV_AT_EPOCH":88905,"BSTAR":0.00021689443,"MEAN_MOTION_DOT":6.85e-6,"MEAN_MOTION_DDOT":0},{"OBJECT_NAME":"IRIDIUM 33 DEB","OBJECT_ID":"1997-051PF","EPOCH":"2026-04-04T23:55:49.298304","MEAN_MOTION":15.10454508,"ECCENTRICITY":0.00390471,"INCLINATION":86.2112,"RA_OF_ASC_NODE":357.3448,"ARG_OF_PERICENTER":117.4813,"MEAN_ANOMALY":243.0403,"EPHEMERIS_TYPE":0,"CLASSIFICATION_TYPE":"U","NORAD_CAT_ID":35080,"ELEMENT_SET_NO":999,"REV_AT_EPOCH":71382,"BSTAR":0.0071511119,"MEAN_MOTION_DOT":0.00121532,"MEAN_MOTION_DDOT":0},{"OBJECT_NAME":"IRIDIUM 33 DEB","OBJECT_ID":"1997-051PM","EPOCH":"2026-04-01T12:47:02.552352","MEAN_MOTION":14.45718193,"ECCENTRICITY":0.001707,"INCLINATION":86.3911,"RA_OF_ASC_NODE":15.8745,"ARG_OF_PERICENTER":131.7502,"MEAN_ANOMALY":228.5163,"EPHEMERIS_TYPE":0,"CLASSIFICATION_TYPE":"U","NORAD_CAT_ID":35297,"ELEMENT_SET_NO":999,"REV_AT_EPOCH":72012,"BSTAR":0.00064810923,"MEAN_MOTION_DOT":2.318e-5,"MEAN_MOTION_DDOT":0},{"OBJECT_NAME":"IRIDIUM 33 DEB","OBJECT_ID":"1997-051PP","EPOCH":"2026-04-05T03:32:22.955424","MEAN_MOTION":14.41919298,"ECCENTRICITY":0.00577153,"INCLINATION":86.2901,"RA_OF_ASC_NODE":343.7918,"ARG_OF_PERICENTER":87.0773,"MEAN_ANOMALY":64.3748,"EPHEMERIS_TYPE":0,"CLASSIFICATION_TYPE":"U","NORAD_CAT_ID":35299,"ELEMENT_SET_NO":999,"REV_AT_EPOCH":87964,"BSTAR":0.0016340823,"MEAN_MOTION_DOT":5.478e-5,"MEAN_MOTION_DDOT":0},{"OBJECT_NAME":"IRIDIUM 33 DEB","OBJECT_ID":"1997-051QA","EPOCH":"2026-04-05T02:34:38.202240","MEAN_MOTION":14.50417186,"ECCENTRICITY":0.00158294,"INCLINATION":86.3582,"RA_OF_ASC_NODE":335.7629,"ARG_OF_PERICENTER":85.277,"MEAN_ANOMALY":275.0242,"EPHEMERIS_TYPE":0,"CLASSIFICATION_TYPE":"U","NORAD_CAT_ID":35480,"ELEMENT_SET_NO":999,"REV_AT_EPOCH":88674,"BSTAR":0.00071454871,"MEAN_MOTION_DOT":2.815e-5,"MEAN_MOTION_DDOT":0},{"OBJECT_NAME":"IRIDIUM 33 DEB","OBJECT_ID":"1997-051QE","EPOCH":"2026-03-17T21:15:20.359584","MEAN_MOTION":15.08193136,"ECCENTRICITY":0.00146559,"INCLINATION":86.3497,"RA_OF_ASC_NODE":307.8859,"ARG_OF_PERICENTER":134.2984,"MEAN_ANOMALY":225.9457,"EPHEMERIS_TYPE":0,"CLASSIFICATION_TYPE":"U","NORAD_CAT_ID":35484,"ELEMENT_SET_NO":999,"REV_AT_EPOCH":63445,"BSTAR":0.0015955373,"MEAN_MOTION_DOT":0.00024808,"MEAN_MOTION_DDOT":0},{"OBJECT_NAME":"IRIDIUM 33 DEB","OBJECT_ID":"1997-051QJ","EPOCH":"2026-04-04T09:07:27.475104","MEAN_MOTION":14.85909014,"ECCENTRICITY":0.00249349,"INCLINATION":86.3217,"RA_OF_ASC_NODE":248.8048,"ARG_OF_PERICENTER":4.1983,"MEAN_ANOMALY":355.9446,"EPHEMERIS_TYPE":0,"CLASSIFICATION_TYPE":"U","NORAD_CAT_ID":35488,"ELEMENT_SET_NO":999,"REV_AT_EPOCH":89937,"BSTAR":0.0021073412,"MEAN_MOTION_DOT":0.00018527,"MEAN_MOTION_DDOT":0},{"OBJECT_NAME":"IRIDIUM 33 DEB","OBJECT_ID":"1997-051QN","EPOCH":"2026-04-05T06:59:54.486240","MEAN_MOTION":14.85502335,"ECCENTRICITY":0.00100121,"INCLINATION":86.3494,"RA_OF_ASC_NODE":293.7785,"ARG_OF_PERICENTER":131.7397,"MEAN_ANOMALY":228.4685,"EPHEMERIS_TYPE":0,"CLASSIFICATION_TYPE":"U","NORAD_CAT_ID":35616,"ELEMENT_SET_NO":999,"REV_AT_EPOCH":89258,"BSTAR":0.0019435529,"MEAN_MOTION_DOT":0.00016837,"MEAN_MOTION_DDOT":0},{"OBJECT_NAME":"IRIDIUM 33 DEB","OBJECT_ID":"1997-051QQ","EPOCH":"2026-04-04T07:46:31.068480","MEAN_MOTION":14.52826493,"ECCENTRICITY":0.00286414,"INCLINATION":86.3345,"RA_OF_ASC_NODE":304.2624,"ARG_OF_PERICENTER":4.0243,"MEAN_ANOMALY":356.1188,"EPHEMERIS_TYPE":0,"CLASSIFICATION_TYPE":"U","NORAD_CAT_ID":35618,"ELEMENT_SET_NO":999,"REV_AT_EPOCH":67028,"BSTAR":0.0005647136,"MEAN_MOTION_DOT":2.353e-5,"MEAN_MOTION_DDOT":0},{"OBJECT_NAME":"IRIDIUM 33 DEB","OBJECT_ID":"1997-051QS","EPOCH":"2026-04-04T21:47:47.408640","MEAN_MOTION":14.4110795,"ECCENTRICITY":0.01326578,"INCLINATION":86.3898,"RA_OF_ASC_NODE":169.6314,"ARG_OF_PERICENTER":242.906,"MEAN_ANOMALY":115.8556,"EPHEMERIS_TYPE":0,"CLASSIFICATION_TYPE":"U","NORAD_CAT_ID":35620,"ELEMENT_SET_NO":999,"REV_AT_EPOCH":61594,"BSTAR":0.002837249,"MEAN_MOTION_DOT":0.00010172,"MEAN_MOTION_DDOT":0},{"OBJECT_NAME":"IRIDIUM 33 DEB","OBJECT_ID":"1997-051QU","EPOCH":"2026-04-03T14:49:11.436672","MEAN_MOTION":15.1667975,"ECCENTRICITY":0.0008661,"INCLINATION":86.1924,"RA_OF_ASC_NODE":207.8616,"ARG_OF_PERICENTER":208.3336,"MEAN_ANOMALY":214.4164,"EPHEMERIS_TYPE":0,"CLASSIFICATION_TYPE":"U","NORAD_CAT_ID":35622,"ELEMENT_SET_NO":999,"REV_AT_EPOCH":89049,"BSTAR":0.0038411,"MEAN_MOTION_DOT":0.00075942,"MEAN_MOTION_DDOT":0}]
