IRIDIUM 33 DEB          
1 34870U 97051MQ  26094.92581572  .00013421  00000+0  18066-2 0  9997
2 34870  86.3060 262.1183 0017232 153.0968 359.2423 14.79029026905829
IRIDIUM 33 DEB          
1 34896U 97051MY  26095.24862889  .00006854  00000+0  11985-2 0  9999
2 34896  86.3236 275.7180 0025372 184.6877 352.2509 14.67555031892833
IRIDIUM 33 DEB          
1 34926U 97051NF  26093.61289112  .00028577  00000+0  57011-2 0  9990
2 34926  86.1325 316.1620 0071394 277.9855 109.4186 14.60196405880862
IRIDIUM 33 DEB          
1 34985U 97051NR  26095.03343830  .00002720  00000+0  81191-3 0  9990
2 34985  86.3753   8.5315 0019689 205.7940 170.8106 14.42598365888087
IRIDIUM 33 DEB          
1 35051U 97051NX  26094.87955221  .00002746  00000+0  73067-3 0  9990
2 35051  86.3227 319.5481 0010374  74.4004 285.8343 14.48224290886336
IRIDIUM 33 DEB          
1 35052U 97051NY  26095.09845225  .00000685  00000+0  21689-3 0  9991
2 35052  86.3323 331.9016 0013586  73.6714 286.5977 14.38660007889055
IRIDIUM 33 DEB          
1 35080U 97051PF  26094.99709836  .00121532  00000+0  71511-2 0  9990
2 35080  86.2112 357.3448 0039047 117.4813 243.0403 15.10454508713820
IRIDIUM 33 DEB          
1 35297U 97051PM  26091.53266843  .00002318  00000+0  64811-3 0  9999
2 35297  86.3911  15.8745 0017070 131.7502 228.5163 14.45718193720122
IRIDIUM 33 DEB          
1 35299U 97051PP  26095.14748791  .00005478  00000+0  16341-2 0  9993
2 35299  86.2901 343.7918 0057715  87.0773  64.3748 14.41919298879642
IRIDIUM 33 DEB          
1 35480U 97051QA  26095.10738660  .00002815  00000+0  71455-3 0  9995
2 35480  86.3582 335.7629 0015829  85.2770 275.0242 14.50417186886745
IRIDIUM 33 DEB          
1 35484U 97051QE  26076.88565231  .00024808  00000+0  15955-2 0  9993
2 35484  86.3497 307.8859 0014655 134.2984 225.9457 15.08193136634458
IRIDIUM 33 DEB          
1 35488U 97051QJ  26094.38017911  .00018527  00000+0  21073-2 0  9998
2 35488  86.3217 248.8048 0024934   4.1983 355.9446 14.85909014899371
IRIDIUM 33 DEB          
1 35616U 97051QN  26095.29160285  .00016837  00000+0  19436-2 0  9997
2 35616  86.3494 293.7785 0010012 131.7397 228.4685 14.85502335892586
IRIDIUM 33 DEB          
1 35618U 97051QQ  26094.32397070  .00002353  00000+0  56471-3 0  9995
2 35618  86.3345 304.2624 0028641   4.0243 356.1188 14.52826493670288
IRIDIUM 33 DEB          
1 35620U 97051QS  26094.90818760  .00010172  00000+0  28372-2 0  9992
2 35620  86.3898 169.6314 0132657 242.9060 115.8556 14.41107950615945
IRIDIUM 33 DEB          
1 35622U 97051QU  26093.61749348  .00075942  00000+0  38411-2 0  9997
2 35622  86.1924 207.8616 0008661 208.3336 214.4164 15.16679750890495
